INTELSAT 10 (IS-10)     
1 26766U 01019A   25362.76808444  .00000085  00000+0  00000+0 0  9998
2 26766   8.6659  60.9933 0008218 230.7174 151.9582  0.99071588 43898
INTELSAT 902 (IS-902)   
1 26900U 01039A   25349.54794076 -.00000265  00000+0  00000+0 0  9997
2 26900   5.6536  74.0372 0004502 189.6359 327.9329  1.00270870 88858
INTELSAT 904 (IS-904)   
1 27380U 02007A   25362.46284244 -.00000207  00000+0  00000+0 0  9999
2 27380   6.4921  71.2482 0002245 248.6920 272.3855  1.00271699 50059
DIRECTV 5 (TEMPO 1)     
1 27426U 02023A   25363.30530602 -.00000039  00000+0  00000+0 0  9997
2 27426   4.4427  77.4537 0003623 210.3667 169.9764  1.00271307 86429
INTELSAT 905 (IS-905)   
1 27438U 02027A   25357.23712243  .00000112  00000+0  00000+0 0  9993
2 27438   6.3102  71.9349 0002749 206.5226 121.7385  1.00273243 49592
GALAXY 3C (G-3C)        
1 27445U 02030A   25363.44884659 -.00000133  00000+0  00000+0 0  9990
2 27445   3.3038  80.3208 0001078  98.9000 345.6544  1.00270818 44796
INTELSAT 906 (IS-906)   
1 27513U 02041A   25363.19508497  .00000031  00000+0  00000+0 0  9999
2 27513   5.3716  75.0363 0006122 205.4076 311.8116  1.00271533 85322
GALAXY 13 (HORIZONS-1)  
1 27954U 03044A   25363.41503056  .00000153  00000+0  00000+0 0  9998
2 27954   0.9799  86.2599 0002262 192.2462 179.0114  1.00273811 44879
INTELSAT 10-02          
1 28358U 04022A   25363.03953100  .00000011  00000+0  00000+0 0  9994
2 28358   0.0162  72.6039 0001511 239.7026 158.7052  1.00271055 78858
XM-3 (RHYTHM)           
1 28626U 05008A   25363.26077869  .00000033  00000+0  00000+0 0  9995
2 28626   0.2157  82.4220 0002424 268.6957 236.4725  0.98951429 40914
DIRECTV 8               
1 28659U 05019A   25363.44211601  .00000023  00000+0  00000+0 0  9996
2 28659   0.0171 297.9515 0003372 352.6435 207.6711  1.00271819 75377
GALAXY 28 (G-28)        
1 28702U 05022A   25363.12428671 -.00000243  00000+0  00000+0 0  9996
2 28702   2.8617  81.0919 0003302 163.7301 179.8543  1.00598880 50261
GALAXY 16 (G-16)        
1 29236U 06023A   25363.47058838 -.00000105  00000+0  00000+0 0  9990
2 29236   0.0260 150.3268 0002852 132.7512 245.4908  1.00270887 71277
DIRECTV 9S              
1 29494U 06043A   25363.44763323 -.00000093  00000+0  00000+0 0  9993
2 29494   1.9817  83.0248 0003266 200.6713 234.3932  1.00270940 49683
GALAXY 17 (G-17)        
1 31307U 07016B   25363.23685853 -.00000186  00000+0  00000+0 0  9991
2 31307   2.5399  82.0921 0005700 176.9231 199.2054  1.00270851 68106
DIRECTV 10              
1 31862U 07032A   25363.16197807 -.00000081  00000+0  00000+0 0  9998
2 31862   0.0187 188.8978 0000199  80.9977 143.4840  1.00268013 43884
INTELSAT 11 (IS-11)     
1 32253U 07044B   25363.42657309 -.00000260  00000+0  00000+0 0  9992
2 32253   3.1220  80.7836 0008732 173.5725 149.7222  0.99052511 66761
HORIZONS-2              
1 32388U 07063B   25363.31035235 -.00000233  00000+0  00000+0 0  9998
2 32388   2.1629  82.7720 0004807 196.5669 216.6002  1.00272473 66110
DIRECTV 11              
1 32729U 08013A   25363.47031059 -.00000104  00000+0  00000+0 0  9997
2 32729   0.0411 201.9352 0000966 326.2670   0.0878  1.00267716 43897
GALAXY 18 (G-18)        
1 32951U 08024A   25363.40350125  .00000000  00000+0  00000+0 0  9991
2 32951   0.0250  23.7944 0003342 253.7665 202.7896  1.00270572 44156
INTELSAT 25 (IS-25)     
1 33153U 08034A   25363.31875906 -.00000204  00000+0  00000+0 0  9993
2 33153   2.2688  82.4604 0005136 193.5796 265.2332  1.00270307 63992
GALAXY 19 (G-19)        
1 33376U 08045A   25363.47058838 -.00000118  00000+0  00000+0 0  9990
2 33376   0.0518 264.0162 0003072  23.6047 242.9600  1.00271478 63207
FM-5                    
1 35493U 09034A   25363.45057992 -.00000178  00000+0  00000+0 0  9995
2 35493   0.0257 286.8196 0001403 251.9099 355.4886  1.00268919 44949
INTELSAT 14 (IS-14)     
1 36097U 09064A   25363.31607237 -.00000252  00000+0  00000+0 0  9990
2 36097   0.0129 320.5520 0002869 328.2397 238.0072  1.00269122 58902
INTELSAT 15 (IS-15)     
1 36106U 09067A   25363.41322634 -.00000164  00000+0  00000+0 0  9992
2 36106   0.0254  67.6731 0002439 224.8478  39.5122  1.00272275 39529
DIRECTV 12              
1 36131U 09075A   25363.29975394 -.00000081  00000+0  00000+0 0  9990
2 36131   0.0237 135.1427 0000646 215.5464 112.5085  1.00266416 44853
INTELSAT 16 (IS-16)     
1 36397U 10006A   25363.47614325 -.00000223  00000+0  00000+0 0  9992
2 36397   0.0104 353.6229 0002145 283.2399 276.5352  1.00269791 57954
XM-5                    
1 37185U 10053A   25363.44211601 -.00000001  00000+0  00000+0 0  9991
2 37185   0.0685 269.1665 0002116 249.8803 343.0671  1.00270467 55780
INTELSAT 17 (IS-17)     
1 37238U 10065B   25363.19543162  .00000000  00000+0  00000+0 0  9993
2 37238   0.0378  77.9129 0002970 226.4732 289.8463  1.00272503 51547
INTELSAT 28 (IS-28)     
1 37392U 11016A   25363.31875906 -.00000204  00000+0  00000+0 0  9996
2 37392   1.3658  84.8632 0003981 191.7065 264.4928  1.00270259 51580
INTELSAT 18 (IS-18)     
1 37834U 11056A   25363.53308877  .00000074  00000+0  00000+0 0  9997
2 37834   0.0012  50.2230 0002064 228.5988 191.3155  1.00269851 52112
INTELSAT 22 (IS-22)     
1 38098U 12011A   25363.41062633  .00000000  00000+0  00000+0 0  9995
2 38098   0.0411  60.1930 0001985 245.1588  12.6711  1.00270891  5484
INTELSAT 19 (IS-19)     
1 38356U 12030A   25363.44280924 -.00000035  00000+0  00000+0 0  9990
2 38356   0.0090 353.2062 0003185 283.2781 147.0844  1.00271869 48740
INTELSAT 20 (IS-20)     
1 38740U 12043A   25362.91047869  .00000002  00000+0  00000+0 0  9994
2 38740   0.0152  69.1371 0002057  80.4413 344.3085  1.00252182 49048
INTELSAT 21 (IS-21)     
1 38749U 12045A   25363.45621330 -.00000263  00000+0  00000+0 0  9996
2 38749   0.0023  83.8420 0001975 190.6945 289.8682  1.00270177 48829
INTELSAT 23 (IS-23)     
1 38867U 12057A   25363.31451237 -.00000263  00000+0  00000+0 0  9992
2 38867   0.0277  86.4061 0000863 224.8179 207.0367  1.00271632 48251
FM-6                    
1 39360U 13058A   25363.44211601  .00000004  00000+0  00000+0 0  9998
2 39360   0.0166  72.1780 0002942 106.0155 322.9512  1.00271384 44374
INTELSAT 30 (IS-30)     
1 40271U 14062A   25362.94947895 -.00000129  00000+0  00000+0 0  9991
2 40271   0.0113  28.2775 0001366  67.7395 248.4022  1.00272855  5080
DIRECTV 14              
1 40333U 14078B   25363.47031059 -.00000104  00000+0  00000+0 0  9995
2 40333   0.0119  15.1841 0000790 192.7510 320.3160  1.00267712 40349
DIRECTV 15              
1 40663U 15026A   25363.29975394 -.00000081  00000+0  00000+0 0  9998
2 40663   0.0032  98.0613 0000277  79.9336 285.0369  1.00270525 38765
SKY MEXICO-1            
1 40664U 15026B   25363.47614325 -.00000213  00000+0  00000+0 0  9990
2 40664   0.0236 295.1534 0002672 356.2625 259.4086  1.00270549 38753
INTELSAT 34 (IS-34)     
1 40874U 15039A   25362.45807574 -.00000263  00000+0  00000+0 0  9999
2 40874   0.0148 310.7868 0000669 252.2990   3.5077  1.00275759 37919
INTELSAT 31 (IS-31)     
1 41581U 16035A   25363.47058838 -.00000129  00000+0  00000+0 0  9997
2 41581   0.0308 262.8324 0002211 310.5890 319.1044  1.00269403 34982
INTELSAT 36 (IS-36)     
1 41747U 16053A   25363.48126014 -.00000002  00000+0  00000+0 0  9994
2 41747   0.0103   0.4252 0001221 296.9867  42.5230  1.00268324 34240
INTELSAT 32E (IS-32E)   
1 41945U 17007B   25362.74581097 -.00000247  00000+0  00000+0 0  9999
2 41945   0.0230  72.2744 0000361 246.0352   4.4660  1.00266909 32512
INTELSAT 35E (IS-35E)   
1 42818U 17041A   25363.46080667  .00000000  00000+0  00000+0 0  9990
2 42818   0.0240  23.9630 0002329 253.7755 311.8217  1.00270704 31114
INTELSAT 37E (IS-37E)   
1 42950U 17059A   25363.32144575  .00000000  00000+0  00000+0 0  9990
2 42950   0.0238  14.2792 0003384 253.1643 288.3010  1.00269532 30364
AZERSPACE 2 (IS-38)     
1 43632U 18074A   25363.47658009  .00000158  00000+0  00000+0 0  9998
2 43632   0.0122  12.2521 0001704 265.7639  36.8397  1.00270101 26745
HORIZONS-3E             
1 43633U 18074B   25363.14447131 -.00000009  00000+0  00000+0 0  9991
2 43633   0.0483 195.8553 0000507  99.9407  23.0697  1.00270309 26638
AT&T T-16               
1 44333U 19034A   25363.47058838 -.00000093  00000+0  00000+0 0  9997
2 44333   0.0171  63.2210 0000774  93.1683  10.3324  1.00266594 23933
INTELSAT 39 (IS-39)     
1 44476U 19049B   25363.19465161  .00000000  00000+0  00000+0 0  9998
2 44476   0.0240  10.8470 0000961 154.7576  64.3093  1.00270401 23425
GALAXY 30 (G-30)        
1 46114U 20056C   25363.40391793  .00000058  00000+0  00000+0 0  9995
2 46114   0.0179  15.2621 0002425 262.6064 200.6421  1.00271680 19595
GALAXY 33 (G-33)        
1 54026U 22128A   25363.44130653  .00000100  00000+0  00000+0 0  9996
2 54026   0.0132   5.3154 0001970 269.7727 208.9256  1.00271928 12049
GALAXY 34 (G-34)        
1 54027U 22128B   25363.40391793  .00000000  00000+0  00000+0 0  9996
2 54027   0.0214 352.0592 0001754 278.6154 203.8995  1.00272179 12214
GALAXY 31 (G-31)        
1 54243U 22153A   25363.44211601  .00000000  00000+0  00000+0 0  9997
2 54243   0.0170  39.5882 0001964 248.8482 207.8587  1.00271512  5437
GALAXY 32 (G-32)        
1 54244U 22153B   25363.44962659 -.00000153  00000+0  00000+0 0  9994
2 54244   0.0100 356.2774 0002294 317.0033 215.7361  1.00270700 11442
GALAXY 35 (G-35)        
1 54741U 22170A   25363.47058838  .00000000  00000+0  00000+0 0  9993
2 54741   0.0164  25.3990 0002725 255.4346 253.6370  1.00268941 11196
GALAXY 36 (G-36)        
1 54742U 22170B   25363.47058838 -.00000164  00000+0  00000+0 0  9996
2 54742   0.0226 260.1756 0000596  66.6371 211.7763  1.00270686 11076
GALAXY 37 (G-37)        
1 57493U 23112A   25363.35947443  .00000069  00000+0  00000+0 0  9998
2 57493   0.0202  58.9665 0002348 222.4481 179.0563  1.00272338  8840
